{
    "links": {
        "self": "http://www.neowsapp.com/rest/v1/neo/54092914?api_key=iIulBulltgU6a56xZRHN4H3l9WmuAYTsLGpBGhQ2"
    },
    "id": "54092914",
    "neo_reference_id": "54092914",
    "name": "(2020 WG3)",
    "designation": "2020 WG3",
    "nasa_jpl_url": "http://ssd.jpl.nasa.gov/sbdb.cgi?sstr=54092914",
    "absolute_magnitude_h": 24.133,
    "estimated_diameter": {
        "kilometers": {
            "estimated_diameter_min": 0.0396236954,
            "estimated_diameter_max": 0.0886012765
        },
        "meters": {
            "estimated_diameter_min": 39.6236954164,
            "estimated_diameter_max": 88.6012764708
        },
        "miles": {
            "estimated_diameter_min": 0.0246210152,
            "estimated_diameter_max": 0.0550542638
        },
        "feet": {
            "estimated_diameter_min": 129.99900487,
            "estimated_diameter_max": 290.6866118966
        }
    },
    "is_potentially_hazardous_asteroid": false,
    "close_approach_data": [
        {
            "close_approach_date": "2020-11-07",
            "close_approach_date_full": "2020-Nov-07 17:35",
            "epoch_date_close_approach": 1604770500000,
            "relative_velocity": {
                "kilometers_per_second": "8.850224091",
                "kilometers_per_hour": "31860.8067276219",
                "miles_per_hour": "19797.0662691715"
            },
            "miss_distance": {
                "astronomical": "0.0946441882",
                "lunar": "36.8165892098",
                "kilometers": "14158568.962599134",
                "miles": "8797726.7973466892"
            },
            "orbiting_body": "Earth"
        }
    ],
    "orbital_data": {
        "orbit_id": "2",
        "orbit_determination_date": "2020-12-05 10:16:14",
        "first_observation_date": "2020-11-21",
        "last_observation_date": "2020-12-05",
        "data_arc_in_days": 14,
        "observations_used": 29,
        "orbit_uncertainty": "9",
        "minimum_orbit_intersection": ".0910723",
        "jupiter_tisserand_invariant": "3.398",
        "epoch_osculation": "2459176.5",
        "eccentricity": ".552025713813306",
        "semi_major_axis": "2.256176497217049",
        "inclination": "6.078704057799313",
        "ascending_node_longitude": "270.4218918584586",
        "orbital_period": "1237.821532302368",
        "perihelion_distance": "1.010709055852003",
        "perihelion_argument": "110.6365657099097",
        "aphelion_distance": "3.501643938582095",
        "perihelion_time": "2459141.778340087120",
        "mean_anomaly": "10.09822275864516",
        "mean_motion": ".2908335253551409",
        "equinox": "J2000",
        "orbit_class": {
            "orbit_class_type": "APO",
            "orbit_class_description": "Near-Earth asteroid orbits which cross the Earth’s orbit similar to that of 1862 Apollo",
            "orbit_class_range": "a (semi-major axis) > 1.0 AU; q (perihelion) < 1.017 AU"
        }
    },
    "is_sentry_object": false
}